COSMOS 2251 DEB         
1 35793U 93036ASP 17345.21422747  .00000686  00000-0  19655-3 0  9996
2 35793  74.0490 175.8928 0012663 270.0426 209.6190 14.46811819233246
